CTC1_L_00342001-01
1 75541U 22835IG  26070.40835648  .00000000  00000+0  00000-0 0  9994
2 75541  70.0000   0.0000 0000000   0.0000   0.0000 13.81096544    13
CTC1_L_00342001-02
1 75542U 26537HD  26070.40835648  .00000000  00000+0  00000-0 0  9998
2 75542  70.0000   0.0000 0000000   0.0000  90.0000 13.81096544    13
CTC1_L_00342001-03
1 75543U 24162IF  26070.40835648  .00000000  00000+0  00000-0 0  9991
2 75543  70.0000   0.0000 0000000   0.0000 180.0000 13.81096544    14
CTC1_L_00342001-04
1 75544U 25409VC  26070.40835648  .00000000  00000+0  00000-0 0  9997
2 75544  70.0000   0.0000 0000000   0.0000 270.0000 13.81096544    15
CTC1_L_00342002-01
1 75545U 26732EW  26070.40835648  .00000000  00000+0  00000-0 0  9998
2 75545  70.0000  12.0000 0000000   0.0000  12.0000 13.81096544    13
CTC1_L_00342002-02
1 75546U 26011JG  26070.40835648  .00000000  00000+0  00000-0 0  9999
2 75546  70.0000  12.0000 0000000   0.0000 102.0000 13.81096544    14
CTC1_L_00342002-03
1 75547U 25707XN  26070.40835648  .00000000  00000+0  00000-0 0  9991
2 75547  70.0000  12.0000 0000000   0.0000 192.0000 13.81096544    14
CTC1_L_00342002-04
1 75548U 22548JK  26070.40835648  .00000000  00000+0  00000-0 0  9992
2 75548  70.0000  12.0000 0000000   0.0000 282.0000 13.81096544    15
CTC1_L_00342003-01
1 75549U 24685YN  26070.40835648  .00000000  00000+0  00000-0 0  9997
2 75549  70.0000  24.0000 0000000   0.0000  24.0000 13.81096544    13
CTC1_L_00342003-02
1 75550U 24204YB  26070.40835648  .00000000  00000+0  00000-0 0  9996
2 75550  70.0000  24.0000 0000000   0.0000 114.0000 13.81096544    15
CTC1_L_00342003-03
1 75551U 25599BO  26070.40835648  .00000000  00000+0  00000-0 0  9995
2 75551  70.0000  24.0000 0000000   0.0000 204.0000 13.81096544    16
CTC1_L_00342003-04
1 75552U 22811WD  26070.40835648  .00000000  00000+0  00000-0 0  9990
2 75552  70.0000  24.0000 0000000   0.0000 294.0000 13.81096544    16
CTC1_L_00342004-01
1 75553U 23233DR  26070.40835648  .00000000  00000+0  00000-0 0  9990
2 75553  70.0000  36.0000 0000000   0.0000  36.0000 13.81096544    14
CTC1_L_00342004-02
1 75554U 22859OG  26070.40835648  .00000000  00000+0  00000-0 0  9994
2 75554  70.0000  36.0000 0000000   0.0000 126.0000 13.81096544    15
CTC1_L_00342004-03
1 75555U 25865SL  26070.40835648  .00000000  00000+0  00000-0 0  9995
2 75555  70.0000  36.0000 0000000   0.0000 216.0000 13.81096544    16
CTC1_L_00342004-04
1 75556U 26318CH  26070.40835648  .00000000  00000+0  00000-0 0  9990
2 75556  70.0000  36.0000 0000000   0.0000 306.0000 13.81096544    17
CTC1_L_00342005-01
1 75557U 24938LC  26070.40835648  .00000000  00000+0  00000-0 0  9997
2 75557  70.0000  48.0000 0000000   0.0000  48.0000 13.81096544    14
CTC1_L_00342005-02
1 75558U 26563XY  26070.40835648  .00000000  00000+0  00000-0 0  9994
2 75558  70.0000  48.0000 0000000   0.0000 138.0000 13.81096544    15
CTC1_L_00342005-03
1 75559U 23522KD  26070.40835648  .00000000  00000+0  00000-0 0  9997
2 75559  70.0000  48.0000 0000000   0.0000 228.0000 13.81096544    16
CTC1_L_00342005-04
1 75560U 24463VF  26070.40835648  .00000000  00000+0  00000-0 0  9994
2 75560  70.0000  48.0000 0000000   0.0000 318.0000 13.81096544    18
CTC1_L_00342006-01
1 75561U 25487YP  26070.40835648  .00000000  00000+0  00000-0 0  9992
2 75561  70.0000  60.0000 0000000   0.0000  60.0000 13.81096544    17
CTC1_L_00342006-02
1 75562U 22997QX  26070.40835648  .00000000  00000+0  00000-0 0  9996
2 75562  70.0000  60.0000 0000000   0.0000 150.0000 13.81096544    18
CTC1_L_00342006-03
1 75563U 23637DY  26070.40835648  .00000000  00000+0  00000-0 0  9999
2 75563  70.0000  60.0000 0000000   0.0000 240.0000 13.81096544    19
CTC1_L_00342006-04
1 75564U 24684TJ  26070.40835648  .00000000  00000+0  00000-0 0  9993
2 75564  70.0000  60.0000 0000000   0.0000 330.0000 13.81096544    10
CTC1_L_00342007-01
1 75565U 23913PY  26070.40835648  .00000000  00000+0  00000-0 0  9998
2 75565  70.0000  72.0000 0000000   0.0000  72.0000 13.81096544    17
CTC1_L_00342007-02
1 75566U 23199BV  26070.40835648  .00000000  00000+0  00000-0 0  9995
2 75566  70.0000  72.0000 0000000   0.0000 162.0000 13.81096544    18
CTC1_L_00342007-03
1 75567U 24986YM  26070.40835648  .00000000  00000+0  00000-0 0  9991
2 75567  70.0000  72.0000 0000000   0.0000 252.0000 13.81096544    19
CTC1_L_00342007-04
1 75568U 23060GN  26070.40835648  .00000000  00000+0  00000-0 0  9994
2 75568  70.0000  72.0000 0000000   0.0000 342.0000 13.81096544    10
CTC1_L_00342008-01
1 75569U 24861GT  26070.40835648  .00000000  00000+0  00000-0 0  9995
2 75569  70.0000  84.0000 0000000   0.0000  84.0000 13.81096544    17
CTC1_L_00342008-02
1 75570U 25672OI  26070.40835648  .00000000  00000+0  00000-0 0  9998
2 75570  70.0000  84.0000 0000000   0.0000 174.0000 13.81096544    19
CTC1_L_00342008-03
1 75571U 23662HQ  26070.40835648  .00000000  00000+0  00000-0 0  9996
2 75571  70.0000  84.0000 0000000   0.0000 264.0000 13.81096544    10
CTC1_L_00342008-04
1 75572U 25062HL  26070.40835648  .00000000  00000+0  00000-0 0  9993
2 75572  70.0000  84.0000 0000000   0.0000 354.0000 13.81096544    11
CTC1_L_00342009-01
1 75573U 22471OL  26070.40835648  .00000000  00000+0  00000-0 0  9995
2 75573  70.0000  96.0000 0000000   0.0000  96.0000 13.81096544    18
CTC1_L_00342009-02
1 75574U 22173JI  26070.40835648  .00000000  00000+0  00000-0 0  9995
2 75574  70.0000  96.0000 0000000   0.0000 186.0000 13.81096544    19
CTC1_L_00342009-03
1 75575U 24619GE  26070.40835648  .00000000  00000+0  00000-0 0  9993
2 75575  70.0000  96.0000 0000000   0.0000 276.0000 13.81096544    10
CTC1_L_00342009-04
1 75576U 22122QU  26070.40835648  .00000000  00000+0  00000-0 0  9991
2 75576  70.0000  96.0000 0000000   0.0000   6.0000 13.81096544    12
CTC1_L_00342010-01
1 75577U 25003KU  26070.40835648  .00000000  00000+0  00000-0 0  9993
2 75577  70.0000 108.0000 0000000   0.0000 108.0000 13.81096544    10
CTC1_L_00342010-02
1 75578U 23020JV  26070.40835648  .00000000  00000+0  00000-0 0  9991
2 75578  70.0000 108.0000 0000000   0.0000 198.0000 13.81096544    10
CTC1_L_00342010-03
1 75579U 26018LU  26070.40835648  .00000000  00000+0  00000-0 0  9992
2 75579  70.0000 108.0000 0000000   0.0000 288.0000 13.81096544    11
CTC1_L_00342010-04
1 75580U 25424UU  26070.40835648  .00000000  00000+0  00000-0 0  9994
2 75580  70.0000 108.0000 0000000   0.0000  18.0000 13.81096544    14
CTC1_L_00342011-01
1 75581U 26253LF  26070.40835648  .00000000  00000+0  00000-0 0  9996
2 75581  70.0000 120.0000 0000000   0.0000 120.0000 13.81096544    13
CTC1_L_00342011-02
1 75582U 23394VA  26070.40835648  .00000000  00000+0  00000-0 0  9990
2 75582  70.0000 120.0000 0000000   0.0000 210.0000 13.81096544    14
CTC1_L_00342011-03
1 75583U 25024QN  26070.40835648  .00000000  00000+0  00000-0 0  9993
2 75583  70.0000 120.0000 0000000   0.0000 300.0000 13.81096544    15
CTC1_L_00342011-04
1 75584U 25151JX  26070.40835648  .00000000  00000+0  00000-0 0  9995
2 75584  70.0000 120.0000 0000000   0.0000  30.0000 13.81096544    16
CTC1_L_00342012-01
1 75585U 25482U   26070.40835648  .00000000  00000+0  00000-0 0  9993
2 75585  70.0000 132.0000 0000000   0.0000 132.0000 13.81096544    13
CTC1_L_00342012-02
1 75586U 23376RK  26070.40835648  .00000000  00000+0  00000-0 0  9994
2 75586  70.0000 132.0000 0000000   0.0000 222.0000 13.81096544    14
CTC1_L_00342012-03
1 75587U 22865P   26070.40835648  .00000000  00000+0  00000-0 0  9997
2 75587  70.0000 132.0000 0000000   0.0000 312.0000 13.81096544    15
CTC1_L_00342012-04
1 75588U 24578EI  26070.40835648  .00000000  00000+0  00000-0 0  9991
2 75588  70.0000 132.0000 0000000   0.0000  42.0000 13.81096544    16
CTC1_L_00342013-01
1 75589U 22178TU  26070.40835648  .00000000  00000+0  00000-0 0  9996
2 75589  70.0000 144.0000 0000000   0.0000 144.0000 13.81096544    13
CTC1_L_00342013-02
1 75590U 26039CL  26070.40835648  .00000000  00000+0  00000-0 0  9998
2 75590  70.0000 144.0000 0000000   0.0000 234.0000 13.81096544    15
CTC1_L_00342013-03
1 75591U 24855ZU  26070.40835648  .00000000  00000+0  00000-0 0  9993
2 75591  70.0000 144.0000 0000000   0.0000 324.0000 13.81096544    16
CTC1_L_00342013-04
1 75592U 22394PQ  26070.40835648  .00000000  00000+0  00000-0 0  9990
2 75592  70.0000 144.0000 0000000   0.0000  54.0000 13.81096544    17
CTC1_L_00342014-01
1 75593U 25309KG  26070.40835648  .00000000  00000+0  00000-0 0  9990
2 75593  70.0000 156.0000 0000000   0.0000 156.0000 13.81096544    14
CTC1_L_00342014-02
1 75594U 24011VC  26070.40835648  .00000000  00000+0  00000-0 0  9990
2 75594  70.0000 156.0000 0000000   0.0000 246.0000 13.81096544    15
CTC1_L_00342014-03
1 75595U 23323GX  26070.40835648  .00000000  00000+0  00000-0 0  9996
2 75595  70.0000 156.0000 0000000   0.0000 336.0000 13.81096544    16
CTC1_L_00342014-04
1 75596U 24776MW  26070.40835648  .00000000  00000+0  00000-0 0  9990
2 75596  70.0000 156.0000 0000000   0.0000  66.0000 13.81096544    17
CTC1_L_00342015-01
1 75597U 26519LH  26070.40835648  .00000000  00000+0  00000-0 0  9998
2 75597  70.0000 168.0000 0000000   0.0000 168.0000 13.81096544    14
CTC1_L_00342015-02
1 75598U 23478TU  26070.40835648  .00000000  00000+0  00000-0 0  9990
2 75598  70.0000 168.0000 0000000   0.0000 258.0000 13.81096544    15
CTC1_L_00342015-03
1 75599U 25443IM  26070.40835648  .00000000  00000+0  00000-0 0  9995
2 75599  70.0000 168.0000 0000000   0.0000 348.0000 13.81096544    16
CTC1_L_00342015-04
1 75600U 24082EO  26070.40835648  .00000000  00000+0  00000-0 0  9996
2 75600  70.0000 168.0000 0000000   0.0000  78.0000 13.81096544    19
CTC1_L_00342016-01
1 75601U 23266JF  26070.40835648  .00000000  00000+0  00000-0 0  9990
2 75601  70.0000 180.0000 0000000   0.0000 180.0000 13.81096544    18
CTC1_L_00342016-02
1 75602U 23209QT  26070.40835648  .00000000  00000+0  00000-0 0  9998
2 75602  70.0000 180.0000 0000000   0.0000 270.0000 13.81096544    19
